{
  "type": "FeatureCollection",
  "features": [
    {
      "type": "Feature",
      "properties": {
        "norad_id": 22675,
        "name": "COSMOS 2251",
        "group": "cosmos-2251-debris",
        "lat": -36.937159750449055,
        "lon": 139.16635999823163,
        "alt_km": 804.0064306207323,
        "timestamp": "2025-12-17T17:50:19.642871+00:00",
        "meta_object_name": "COSMOS 2251",
        "meta_object_id": "1993-036A",
        "meta_epoch": "2025-12-17T06:46:15.799584",
        "meta_mean_motion": 14.33206239,
        "meta_eccentricity": 0.00241558,
        "meta_inclination": 74.0399,
        "meta_ra_of_asc_node": 307.5838,
        "meta_arg_of_pericenter": 28.5584,
        "meta_mean_anomaly": 331.6885,
        "meta_ephemeris_type": 0,
        "meta_classification_type": "U",
        "meta_norad_cat_id": 22675,
        "meta_element_set_no": 999,
        "meta_rev_at_epoch": 69838,
        "meta_bstar": 4.8035333e-05,
        "meta_mean_motion_dot": 1.06e-06,
        "meta_mean_motion_ddot": 0,
        "tle_line1": "1 22675U 93036A   25351.28212731  .00000106  00000+0  48035-4 0  9995",
        "tle_line2": "2 22675  74.0399 307.5838 0024155  28.5584 331.6885 14.33206239698380"
      },
      "geometry": {
        "type": "Point",
        "coordinates": [
          139.16635999823163,
          -36.937159750449055
        ]
      }
    },
    {
      "type": "Feature",
      "properties": {
        "norad_id": 33757,
        "name": "COSMOS 2251 DEB",
        "group": "cosmos-2251-debris",
        "lat": -61.52410178656505,
        "lon": 166.3255709676683,
        "alt_km": 788.1536973626753,
        "timestamp": "2025-12-17T17:50:19.642897+00:00",
        "meta_object_name": "COSMOS 2251 DEB",
        "meta_object_id": "1993-036E",
        "meta_epoch": "2025-12-17T07:09:25.013952",
        "meta_mean_motion": 14.32582215,
        "meta_eccentricity": 0.00154308,
        "meta_inclination": 74.0371,
        "meta_ra_of_asc_node": 315.2877,
        "meta_arg_of_pericenter": 327.839,
        "meta_mean_anomaly": 143.9213,
        "meta_ephemeris_type": 0,
        "meta_classification_type": "U",
        "meta_norad_cat_id": 33757,
        "meta_element_set_no": 999,
        "meta_rev_at_epoch": 88061,
        "meta_bstar": 3.8848117e-05,
        "meta_mean_motion_dot": 7.9e-07,
        "meta_mean_motion_ddot": 0,
        "tle_line1": "1 33757U 93036E   25351.29820618  .00000079  00000+0  38848-4 0  9998",
        "tle_line2": "2 33757  74.0371 315.2877 0015430 327.8390 143.9213 14.32582215880616"
      },
      "geometry": {
        "type": "Point",
        "coordinates": [
          166.3255709676683,
          -61.52410178656505
        ]
      }
    },
    {
      "type": "Feature",
      "properties": {
        "norad_id": 33758,
        "name": "COSMOS 2251 DEB",
        "group": "cosmos-2251-debris",
        "lat": 5.71286854802378,
        "lon": 23.963724504278566,
        "alt_km": 723.893235597503,
        "timestamp": "2025-12-17T17:50:19.642911+00:00",
        "meta_object_name": "COSMOS 2251 DEB",
        "meta_object_id": "1993-036F",
        "meta_epoch": "2025-12-17T07:39:21.079872",
        "meta_mean_motion": 14.51621977,
        "meta_eccentricity": 0.00173098,
        "meta_inclination": 74.0271,
        "meta_ra_of_asc_node": 206.4046,
        "meta_arg_of_pericenter": 272.8463,
        "meta_mean_anomaly": 204.9294,
        "meta_ephemeris_type": 0,
        "meta_classification_type": "U",
        "meta_norad_cat_id": 33758,
        "meta_element_set_no": 999,
        "meta_rev_at_epoch": 88371,
        "meta_bstar": 0.00057349574,
        "meta_mean_motion_dot": 2.275e-05,
        "meta_mean_motion_ddot": 0,
        "tle_line1": "1 33758U 93036F   25351.31899398  .00002275  00000+0  57350-3 0  9991",
        "tle_line2": "2 33758  74.0271 206.4046 0017309 272.8463 204.9294 14.51621977883713"
      },
      "geometry": {
        "type": "Point",
        "coordinates": [
          23.963724504278566,
          5.71286854802378
        ]
      }
    },
    {
      "type": "Feature",
      "properties": {
        "norad_id": 33760,
        "name": "COSMOS 2251 DEB",
        "group": "cosmos-2251-debris",
        "lat": -8.91715587442093,
        "lon": 94.84888938618921,
        "alt_km": 790.8827123483661,
        "timestamp": "2025-12-17T17:50:19.642924+00:00",
        "meta_object_name": "COSMOS 2251 DEB",
        "meta_object_id": "1993-036H",
        "meta_epoch": "2025-12-17T05:57:41.091264",
        "meta_mean_motion": 14.35675762,
        "meta_eccentricity": 0.00200864,
        "meta_inclination": 74.0321,
        "meta_ra_of_asc_node": 273.1819,
        "meta_arg_of_pericenter": 10.4601,
        "meta_mean_anomaly": 141.9207,
        "meta_ephemeris_type": 0,
        "meta_classification_type": "U",
        "meta_norad_cat_id": 33760,
        "meta_element_set_no": 999,
        "meta_rev_at_epoch": 88189,
        "meta_bstar": 9.0831536e-05,
        "meta_mean_motion_dot": 2.37e-06,
        "meta_mean_motion_ddot": 0,
        "tle_line1": "1 33760U 93036H   25351.24839226  .00000237  00000+0  90832-4 0  9999",
        "tle_line2": "2 33760  74.0321 273.1819 0020086  10.4601 141.9207 14.35675762881891"
      },
      "geometry": {
        "type": "Point",
        "coordinates": [
          94.84888938618921,
          -8.91715587442093
        ]
      }
    },
    {
      "type": "Feature",
      "properties": {
        "norad_id": 33761,
        "name": "COSMOS 2251 DEB",
        "group": "cosmos-2251-debris",
        "lat": -57.684812912931854,
        "lon": 89.78722473354489,
        "alt_km": 754.136254386055,
        "timestamp": "2025-12-17T17:50:19.642935+00:00",
        "meta_object_name": "COSMOS 2251 DEB",
        "meta_object_id": "1993-036J",
        "meta_epoch": "2025-12-17T03:57:37.420416",
        "meta_mean_motion": 14.42558029,
        "meta_eccentricity": 0.0023166,
        "meta_inclination": 74.0358,
        "meta_ra_of_asc_node": 243.9526,
        "meta_arg_of_pericenter": 323.5493,
        "meta_mean_anomaly": 156.3374,
        "meta_ephemeris_type": 0,
        "meta_classification_type": "U",
        "meta_norad_cat_id": 33761,
        "meta_element_set_no": 999,
        "meta_rev_at_epoch": 88298,
        "meta_bstar": 0.00036642801,
        "meta_mean_motion_dot": 1.193e-05,
        "meta_mean_motion_ddot": 0,
        "tle_line1": "1 33761U 93036J   25351.16501644  .00001193  00000+0  36643-3 0  9992",
        "tle_line2": "2 33761  74.0358 243.9526 0023166 323.5493 156.3374 14.42558029882981"
      },
      "geometry": {
        "type": "Point",
        "coordinates": [
          89.78722473354489,
          -57.684812912931854
        ]
      }
    },
    {
      "type": "Feature",
      "properties": {
        "norad_id": 33762,
        "name": "COSMOS 2251 DEB",
        "group": "cosmos-2251-debris",
        "lat": 73.99478460050767,
        "lon": 34.9031232469319,
        "alt_km": 772.070973042998,
        "timestamp": "2025-12-17T17:50:19.642947+00:00",
        "meta_object_name": "COSMOS 2251 DEB",
        "meta_object_id": "1993-036K",
        "meta_epoch": "2025-12-17T07:56:33.425952",
        "meta_mean_motion": 14.33665252,
        "meta_eccentricity": 0.00151855,
        "meta_inclination": 74.042,
        "meta_ra_of_asc_node": 301.6326,
        "meta_arg_of_pericenter": 1.9448,
        "meta_mean_anomaly": 121.6726,
        "meta_ephemeris_type": 0,
        "meta_classification_type": "U",
        "meta_norad_cat_id": 33762,
        "meta_element_set_no": 999,
        "meta_rev_at_epoch": 88113,
        "meta_bstar": 4.4205593e-05,
        "meta_mean_motion_dot": 9.7e-07,
        "meta_mean_motion_ddot": 0,
        "tle_line1": "1 33762U 93036K   25351.33094243  .00000097  00000+0  44206-4 0  9991",
        "tle_line2": "2 33762  74.0420 301.6326 0015185   1.9448 121.6726 14.33665252881130"
      },
      "geometry": {
        "type": "Point",
        "coordinates": [
          34.9031232469319,
          73.99478460050767
        ]
      }
    },
    {
      "type": "Feature",
      "properties": {
        "norad_id": 33764,
        "name": "COSMOS 2251 DEB",
        "group": "cosmos-2251-debris",
        "lat": -22.835951652037437,
        "lon": -103.50610772129357,
        "alt_km": 770.3585753992784,
        "timestamp": "2025-12-17T17:50:19.642958+00:00",
        "meta_object_name": "COSMOS 2251 DEB",
        "meta_object_id": "1993-036M",
        "meta_epoch": "2025-12-17T05:18:43.803648",
        "meta_mean_motion": 14.39520017,
        "meta_eccentricity": 0.00237463,
        "meta_inclination": 74.0336,
        "meta_ra_of_asc_node": 264.3817,
        "meta_arg_of_pericenter": 229.3237,
        "meta_mean_anomaly": 282.9604,
        "meta_ephemeris_type": 0,
        "meta_classification_type": "U",
        "meta_norad_cat_id": 33764,
        "meta_element_set_no": 999,
        "meta_rev_at_epoch": 88221,
        "meta_bstar": 0.00026548316,
        "meta_mean_motion_dot": 8.04e-06,
        "meta_mean_motion_ddot": 0,
        "tle_line1": "1 33764U 93036M   25351.22134032  .00000804  00000+0  26548-3 0  9996",
        "tle_line2": "2 33764  74.0336 264.3817 0023746 229.3237 282.9604 14.39520017882213"
      },
      "geometry": {
        "type": "Point",
        "coordinates": [
          -103.50610772129357,
          -22.835951652037437
        ]
      }
    }
  ]
}